ONEWEB-0118             
1 47264U 20100G   21134.06594059  .00000236  00000-0  62171-3 0  9996
2 47264  87.8939   0.4918 0001990  86.1729 273.9627 13.12445765 20739
ONEWEB-0119             
1 47265U 20100H   21134.09554064  .00000112  00000-0  27719-3 0  9994
2 47265  87.8988   0.5573 0001616  97.3703 262.7609 13.12459422 20712
ONEWEB-0120             
1 47266U 20100J   21133.66917499 -.00000124  00000-0 -37021-3 0  9994
2 47266  87.8889   0.4768 0004025  98.8047 261.3539 13.14150688 20689
ONEWEB-0121             
1 47267U 20100K   21133.66273231 -.00000039  00000-0 -13514-3 0  9990
2 47267  87.9104   0.4935 0001662 114.2267 245.9037 13.16603498 20593
ONEWEB-0122             
1 47268U 20100L   21134.10404294 -.00000160  00000-0 -47918-3 0  9996
2 47268  87.8922   0.4722 0001955  86.1775 273.9577 13.12440041 20567
ONEWEB-0123             
1 47269U 20100M   21134.09802350  .00000011  00000-0 -39539-5 0  9996
2 47269  87.8946   0.5108 0001659  88.5851 271.5467 13.12382372 20705
ONEWEB-0124             
1 47270U 20100N   21133.70100202 -.00144489  00000-0 -40696+0 0  9991
2 47270  87.8914   0.5733 0001131 116.4185 243.7059 13.12617958 20532
ONEWEB-0125             
1 47271U 20100P   21133.68390081 -.00162047  00000-0 -42214+0 0  9993
2 47271  87.9170   0.5353 0002396  56.2338 303.9021 13.18083334 20596
ONEWEB-0126             
1 47272U 20100Q   21134.08710220  .00000374  00000-0  10032-2 0  9998
2 47272  87.8945   0.5595 0001476  99.5507 260.5788 13.12447133 20717
ONEWEB-0127             
1 47273U 20100R   21134.12723600  .00020925  00000-0  58165-1 0  9992
2 47273  87.8922   0.4855 0002753 103.1962 256.9473 13.12246437 20744
ONEWEB-0128             
1 47274U 20100S   21134.07004071 -.00001435  00000-0 -40257-2 0  9992
2 47274  87.8940   0.4756 0001698  96.1623 263.9699 13.12432600 20755
ONEWEB-0129             
1 47275U 20100T   21133.67159768 -.00000029  00000-0 -11485-3 0  9992
2 47275  87.8956   0.4729 0001873  83.7800 276.3542 13.12484044 20638
ONEWEB-0130             
1 47276U 20100U   21133.69738818  .00000394  00000-0  10599-2 0  9991
2 47276  87.8907   0.5233 0001972  90.9217 269.2137 13.12448494 20605
ONEWEB-0131             
1 47277U 20100V   21134.07442283  .00000701  00000-0  19124-2 0  9998
2 47277  87.8919   0.3941 0001932  96.0762 264.0587 13.12449484 20692
ONEWEB-0132             
1 47278U 20100W   21133.65083393 -.00001062  00000-0 -29883-2 0  9991
2 47278  87.8940   0.6441 0002004  82.9862 277.1495 13.12441110 20535
ONEWEB-0133             
1 47279U 20100X   21133.66570661 -.00000292  00000-0 -84840-3 0  9991
2 47279  87.8965   0.4943 0001826  89.4564 270.6774 13.12440265 20695
