[
{
"OBJECT_NAME": "ONEWEB-0118",
"OBJECT_ID": "2020-100G",
"EPOCH": "2021-05-14T01:34:57.266976",
"MEAN_MOTION": 13.12445765,
"ECCENTRICITY": 0.000199,
"INCLINATION": 87.8939,
"RA_OF_ASC_NODE": 0.4918,
"ARG_OF_PERICENTER": 86.1729,
"MEAN_ANOMALY": 273.9627,
"EPHEMERIS_TYPE": 0,
"CLASSIFICATION_TYPE": "U",
"NORAD_CAT_ID": 47264,
"ELEMENT_SET_NO": 999,
"REV_AT_EPOCH": 2073,
"BSTAR": 0.00062171,
"MEAN_MOTION_DOT": 0.00000236,
"MEAN_MOTION_DDOT": 0
},
{
"OBJECT_NAME": "ONEWEB-0119",
"OBJECT_ID": "2020-100H",
"EPOCH": "2021-05-14T02:17:34.711296",
"MEAN_MOTION": 13.12459422,
"ECCENTRICITY": 0.0001616,
"INCLINATION": 87.8988,
"RA_OF_ASC_NODE": 0.5573,
"ARG_OF_PERICENTER": 97.3703,
"MEAN_ANOMALY": 262.7609,
"EPHEMERIS_TYPE": 0,
"CLASSIFICATION_TYPE": "U",
"NORAD_CAT_ID": 47265,
"ELEMENT_SET_NO": 999,
"REV_AT_EPOCH": 2071,
"BSTAR": 0.00027719,
"MEAN_MOTION_DOT": 0.00000112,
"MEAN_MOTION_DDOT": 0
},
{
"OBJECT_NAME": "ONEWEB-0120",
"OBJECT_ID": "2020-100J",
"EPOCH": "2021-05-13T16:03:36.719136",
"MEAN_MOTION": 13.14150688,
"ECCENTRICITY": 0.0004025,
"INCLINATION": 87.8889,
"RA_OF_ASC_NODE": 0.4768,
"ARG_OF_PERICENTER": 98.8047,
"MEAN_ANOMALY": 261.3539,
"EPHEMERIS_TYPE": 0,
"CLASSIFICATION_TYPE": "U",
"NORAD_CAT_ID": 47266,
"ELEMENT_SET_NO": 999,
"REV_AT_EPOCH": 2068,
"BSTAR": -0.00037021,
"MEAN_MOTION_DOT": -0.00000124,
"MEAN_MOTION_DDOT": 0
},
{
"OBJECT_NAME": "ONEWEB-0121",
"OBJECT_ID": "2020-100K",
"EPOCH": "2021-05-13T15:54:20.071584",
"MEAN_MOTION": 13.16603498,
"ECCENTRICITY": 0.0001662,
"INCLINATION": 87.9104,
"RA_OF_ASC_NODE": 0.4935,
"ARG_OF_PERICENTER": 114.2267,
"MEAN_ANOMALY": 245.9037,
"EPHEMERIS_TYPE": 0,
"CLASSIFICATION_TYPE": "U",
"NORAD_CAT_ID": 47267,
"ELEMENT_SET_NO": 999,
"REV_AT_EPOCH": 2059,
"BSTAR": -0.00013514,
"MEAN_MOTION_DOT": -3.9e-7,
"MEAN_MOTION_DDOT": 0
},
{
"OBJECT_NAME": "ONEWEB-0122",
"OBJECT_ID": "2020-100L",
"EPOCH": "2021-05-14T02:29:49.310016",
"MEAN_MOTION": 13.12440041,
"ECCENTRICITY": 0.0001955,
"INCLINATION": 87.8922,
"RA_OF_ASC_NODE": 0.4722,
"ARG_OF_PERICENTER": 86.1775,
"MEAN_ANOMALY": 273.9577,
"EPHEMERIS_TYPE": 0,
"CLASSIFICATION_TYPE": "U",
"NORAD_CAT_ID": 47268,
"ELEMENT_SET_NO": 999,
"REV_AT_EPOCH": 2056,
"BSTAR": -0.00047918,
"MEAN_MOTION_DOT": -0.0000016,
"MEAN_MOTION_DDOT": 0
},
{
"OBJECT_NAME": "ONEWEB-0123",
"OBJECT_ID": "2020-100M",
"EPOCH": "2021-05-14T02:21:09.230400",
"MEAN_MOTION": 13.12382372,
"ECCENTRICITY": 0.0001659,
"INCLINATION": 87.8946,
"RA_OF_ASC_NODE": 0.5108,
"ARG_OF_PERICENTER": 88.5851,
"MEAN_ANOMALY": 271.5467,
"EPHEMERIS_TYPE": 0,
"CLASSIFICATION_TYPE": "U",
"NORAD_CAT_ID": 47269,
"ELEMENT_SET_NO": 999,
"REV_AT_EPOCH": 2070,
"BSTAR": -0.0000039539,
"MEAN_MOTION_DOT": 1.1e-7,
"MEAN_MOTION_DDOT": 0
},
{
"OBJECT_NAME": "ONEWEB-0124",
"OBJECT_ID": "2020-100N",
"EPOCH": "2021-05-13T16:49:26.574528",
"MEAN_MOTION": 13.12617958,
"ECCENTRICITY": 0.0001131,
"INCLINATION": 87.8914,
"RA_OF_ASC_NODE": 0.5733,
"ARG_OF_PERICENTER": 116.4185,
"MEAN_ANOMALY": 243.7059,
"EPHEMERIS_TYPE": 0,
"CLASSIFICATION_TYPE": "U",
"NORAD_CAT_ID": 47270,
"ELEMENT_SET_NO": 999,
"REV_AT_EPOCH": 2053,
"BSTAR": -0.40696,
"MEAN_MOTION_DOT": -0.00144489,
"MEAN_MOTION_DDOT": 0
},
{
"OBJECT_NAME": "ONEWEB-0125",
"OBJECT_ID": "2020-100P",
"EPOCH": "2021-05-13T16:24:49.029984",
"MEAN_MOTION": 13.18083334,
"ECCENTRICITY": 0.0002396,
"INCLINATION": 87.917,
"RA_OF_ASC_NODE": 0.5353,
"ARG_OF_PERICENTER": 56.2338,
"MEAN_ANOMALY": 303.9021,
"EPHEMERIS_TYPE": 0,
"CLASSIFICATION_TYPE": "U",
"NORAD_CAT_ID": 47271,
"ELEMENT_SET_NO": 999,
"REV_AT_EPOCH": 2059,
"BSTAR": -0.42214,
"MEAN_MOTION_DOT": -0.00162047,
"MEAN_MOTION_DDOT": 0
},
{
"OBJECT_NAME": "ONEWEB-0126",
"OBJECT_ID": "2020-100Q",
"EPOCH": "2021-05-14T02:05:25.630080",
"MEAN_MOTION": 13.12447133,
"ECCENTRICITY": 0.0001476,
"INCLINATION": 87.8945,
"RA_OF_ASC_NODE": 0.5595,
"ARG_OF_PERICENTER": 99.5507,
"MEAN_ANOMALY": 260.5788,
"EPHEMERIS_TYPE": 0,
"CLASSIFICATION_TYPE": "U",
"NORAD_CAT_ID": 47272,
"ELEMENT_SET_NO": 999,
"REV_AT_EPOCH": 2071,
"BSTAR": 0.0010032,
"MEAN_MOTION_DOT": 0.00000374,
"MEAN_MOTION_DDOT": 0
},
{
"OBJECT_NAME": "ONEWEB-0127",
"OBJECT_ID": "2020-100R",
"EPOCH": "2021-05-14T03:03:13.190400",
"MEAN_MOTION": 13.12246437,
"ECCENTRICITY": 0.0002753,
"INCLINATION": 87.8922,
"RA_OF_ASC_NODE": 0.4855,
"ARG_OF_PERICENTER": 103.1962,
"MEAN_ANOMALY": 256.9473,
"EPHEMERIS_TYPE": 0,
"CLASSIFICATION_TYPE": "U",
"NORAD_CAT_ID": 47273,
"ELEMENT_SET_NO": 999,
"REV_AT_EPOCH": 2074,
"BSTAR": 0.058165,
"MEAN_MOTION_DOT": 0.00020925,
"MEAN_MOTION_DDOT": 0
},
{
"OBJECT_NAME": "ONEWEB-0128",
"OBJECT_ID": "2020-100S",
"EPOCH": "2021-05-14T01:40:51.517344",
"MEAN_MOTION": 13.124326,
"ECCENTRICITY": 0.0001698,
"INCLINATION": 87.894,
"RA_OF_ASC_NODE": 0.4756,
"ARG_OF_PERICENTER": 96.1623,
"MEAN_ANOMALY": 263.9699,
"EPHEMERIS_TYPE": 0,
"CLASSIFICATION_TYPE": "U",
"NORAD_CAT_ID": 47274,
"ELEMENT_SET_NO": 999,
"REV_AT_EPOCH": 2075,
"BSTAR": -0.0040257,
"MEAN_MOTION_DOT": -0.00001435,
"MEAN_MOTION_DDOT": 0
},
{
"OBJECT_NAME": "ONEWEB-0129",
"OBJECT_ID": "2020-100T",
"EPOCH": "2021-05-13T16:07:06.039552",
"MEAN_MOTION": 13.12484044,
"ECCENTRICITY": 0.0001873,
"INCLINATION": 87.8956,
"RA_OF_ASC_NODE": 0.4729,
"ARG_OF_PERICENTER": 83.78,
"MEAN_ANOMALY": 276.3542,
"EPHEMERIS_TYPE": 0,
"CLASSIFICATION_TYPE": "U",
"NORAD_CAT_ID": 47275,
"ELEMENT_SET_NO": 999,
"REV_AT_EPOCH": 2063,
"BSTAR": -0.00011485,
"MEAN_MOTION_DOT": -2.9e-7,
"MEAN_MOTION_DDOT": 0
},
{
"OBJECT_NAME": "ONEWEB-0130",
"OBJECT_ID": "2020-100U",
"EPOCH": "2021-05-13T16:44:14.338752",
"MEAN_MOTION": 13.12448494,
"ECCENTRICITY": 0.0001972,
"INCLINATION": 87.8907,
"RA_OF_ASC_NODE": 0.5233,
"ARG_OF_PERICENTER": 90.9217,
"MEAN_ANOMALY": 269.2137,
"EPHEMERIS_TYPE": 0,
"CLASSIFICATION_TYPE": "U",
"NORAD_CAT_ID": 47276,
"ELEMENT_SET_NO": 999,
"REV_AT_EPOCH": 2060,
"BSTAR": 0.0010599,
"MEAN_MOTION_DOT": 0.00000394,
"MEAN_MOTION_DDOT": 0
},
{
"OBJECT_NAME": "ONEWEB-0131",
"OBJECT_ID": "2020-100V",
"EPOCH": "2021-05-14T01:47:10.132512",
"MEAN_MOTION": 13.12449484,
"ECCENTRICITY": 0.0001932,
"INCLINATION": 87.8919,
"RA_OF_ASC_NODE": 0.3941,
"ARG_OF_PERICENTER": 96.0762,
"MEAN_ANOMALY": 264.0587,
"EPHEMERIS_TYPE": 0,
"CLASSIFICATION_TYPE": "U",
"NORAD_CAT_ID": 47277,
"ELEMENT_SET_NO": 999,
"REV_AT_EPOCH": 2069,
"BSTAR": 0.0019124,
"MEAN_MOTION_DOT": 0.00000701,
"MEAN_MOTION_DDOT": 0
},
{
"OBJECT_NAME": "ONEWEB-0132",
"OBJECT_ID": "2020-100W",
"EPOCH": "2021-05-13T15:37:12.051552",
"MEAN_MOTION": 13.1244111,
"ECCENTRICITY": 0.0002004,
"INCLINATION": 87.894,
"RA_OF_ASC_NODE": 0.6441,
"ARG_OF_PERICENTER": 82.9862,
"MEAN_ANOMALY": 277.1495,
"EPHEMERIS_TYPE": 0,
"CLASSIFICATION_TYPE": "U",
"NORAD_CAT_ID": 47278,
"ELEMENT_SET_NO": 999,
"REV_AT_EPOCH": 2053,
"BSTAR": -0.0029883,
"MEAN_MOTION_DOT": -0.00001062,
"MEAN_MOTION_DDOT": 0
},
{
"OBJECT_NAME": "ONEWEB-0133",
"OBJECT_ID": "2020-100X",
"EPOCH": "2021-05-13T15:58:37.051104",
"MEAN_MOTION": 13.12440265,
"ECCENTRICITY": 0.0001826,
"INCLINATION": 87.8965,
"RA_OF_ASC_NODE": 0.4943,
"ARG_OF_PERICENTER": 89.4564,
"MEAN_ANOMALY": 270.6774,
"EPHEMERIS_TYPE": 0,
"CLASSIFICATION_TYPE": "U",
"NORAD_CAT_ID": 47279,
"ELEMENT_SET_NO": 999,
"REV_AT_EPOCH": 2069,
"BSTAR": -0.0008484,
"MEAN_MOTION_DOT": -0.00000292,
"MEAN_MOTION_DDOT": 0
}
]